TROOP-F2                
1 60557U 24149CT  26068.81453008  .00139132  00000+0  10931-2 0  9998
2 60557  97.3621 159.7382 0003464 230.7595 129.3361 15.71081872 87567
STARLINK-11287 [DTC]    
1 60998U 24158J   26068.82189207 -.00002217  00000+0 -13451-4 0  9992
2 60998  53.1597 280.7399 0000841  60.1114 299.9987 15.69705376 87601
