[{"OBJECT_NAME":"TROOP-F2","OBJECT_ID":"2024-149CT","EPOCH":"2026-03-09T19:32:55.399776","MEAN_MOTION":15.71081872,"ECCENTRICITY":0.00034643,"INCLINATION":97.3621,"RA_OF_ASC_NODE":159.7382,"ARG_OF_PERICENTER":230.7595,"MEAN_ANOMALY":129.3361,"EPHEMERIS_TYPE":0,"CLASSIFICATION_TYPE":"U","NORAD_CAT_ID":60557,"ELEMENT_SET_NO":999,"REV_AT_EPOCH":8756,"BSTAR":0.001093104,"MEAN_MOTION_DOT":0.00139132,"MEAN_MOTION_DDOT":0},{"OBJECT_NAME":"STARLINK-11287 [DTC]","OBJECT_ID":"2024-158J","EPOCH":"2026-03-09T19:43:31.475712","MEAN_MOTION":15.69705376,"ECCENTRICITY":8.411e-5,"INCLINATION":53.1597,"RA_OF_ASC_NODE":280.7399,"ARG_OF_PERICENTER":60.1114,"MEAN_ANOMALY":299.9987,"EPHEMERIS_TYPE":0,"CLASSIFICATION_TYPE":"U","NORAD_CAT_ID":60998,"ELEMENT_SET_NO":999,"REV_AT_EPOCH":8760,"BSTAR":-1.3450658e-5,"MEAN_MOTION_DOT":-2.217e-5,"MEAN_MOTION_DDOT":0}]
